OBJECT_NAME,OBJECT_ID,EPOCH,MEAN_MOTION,ECCENTRICITY,INCLINATION,RA_OF_ASC_NODE,ARG_OF_PERICENTER,MEAN_ANOMALY,EPHEMERIS_TYPE,CLASSIFICATION_TYPE,NORAD_CAT_ID,ELEMENT_SET_NO,REV_AT_EPOCH,BSTAR,MEAN_MOTION_DOT,MEAN_MOTION_DDOT
SWARM A,2013-067B,2026-07-02T18:26:02.956128,15.51250384,.000323,87.3304,50.4504,96.7690,263.3938,0,U,39452,999,70866,.18692E-3,.10985E-3,0
SWARM C,2013-067C,2026-07-02T18:25:54.348096,15.51249270,.0003204,87.3303,49.0312,96.8010,263.3615,0,U,39453,999,70862,.187E-3,.10989E-3,0
BRITE-CA1 (TORONTO),2014-033L,2026-07-02T19:13:13.804608,14.72703454,.007761,97.9759,312.4427,226.2184,133.2586,0,U,40020,999,64451,.18267E-3,.1167E-4,0
OCO 2,2014-035A,2026-07-02T19:29:23.713728,14.57124289,.0001489,98.2019,124.8673,82.0449,278.0919,0,U,40059,999,63832,.11787E-3,.486E-5,0
BRITE-PL2 (HEWELIUSZ),2014-049B,2026-07-02T20:06:56.655072,14.94651278,.0015069,97.9112,295.9600,60.8674,299.4052,0,U,40119,999,64378,.19367E-3,.2043E-4,0
MMS 1,2015-011A,2026-07-02T20:00:03.000384,0.28325016,.8316617,72.3341,348.5884,167.6753,94.9172,0,U,40482,999,139,0,-.924E-5,0
MMS 2,2015-011B,2026-07-02T20:00:03.000384,0.28324381,.8319519,72.3437,348.5849,167.6803,94.8997,0,U,40483,999,139,0,-.925E-5,0
MMS 3,2015-011C,2026-07-02T20:00:03.000384,0.28324992,.8317794,72.3376,348.5993,167.6859,94.8809,0,U,40484,999,139,0,-.924E-5,0
MMS 4,2015-011D,2026-07-02T20:00:03.000384,0.28325009,.8317708,72.3338,348.5826,167.6957,94.8747,0,U,40485,999,139,0,-.924E-5,0
ASTROSAT,2015-052A,2026-07-02T03:51:15.719040,14.82533398,.00085641,5.9977,47.5602,250.6263,109.2939,0,U,40930,999,58205,.13028684E-3,.1744E-4,0
DAMPE,2015-078A,2026-07-02T20:33:23.903424,15.30827010,.0012894,97.4554,189.4005,28.0550,332.1383,0,U,41173,999,58694,.5687E-4,.1619E-4,0
PISAT,2016-059B,2026-07-02T11:16:40.498752,14.69011061,.0029647,97.8182,183.2661,153.9873,206.2831,0,U,41784,999,52198,.19878E-3,.1126E-4,0
HXMT (HUIYAN),2017-034A,2026-07-02T20:31:02.489952,15.18595345,.0032743,43.0144,95.7923,245.6784,114.0644,0,U,42758,999,50004,.25752E-3,.5258E-4,0
FLYING LAPTOP,2017-042G,2026-07-02T20:23:22.657920,15.01250832,.0019994,97.4759,338.7866,71.7378,288.6020,0,U,42831,999,48880,.5008E-3,.6406E-4,0
ZHANGHENG 1-01 (CSES-1),2018-015C,2026-07-02T20:43:09.933888,15.21019003,.0017763,97.6885,349.8346,208.6001,151.4261,0,U,43194,999,46702,.37277E-3,.8234E-4,0
SALSAT,2020-068K,2026-07-02T06:06:00.402048,15.30013367,.0008038,97.8847,187.2381,243.7769,116.2645,0,U,46495,999,31766,.29987E-3,.8637E-4,0
IXPE,2021-121A,2026-07-02T20:00:03.000384,15.10398172,.0007402,0.2291,199.3466,314.3757,346.9059,0,U,49954,999,582,.86354E-3,.15577E-3,0
SMILE,2026-109A,2026-06-07T09:11:54.544416,7.54049028,.3310191,69.9787,209.3069,288.5544,45.7342,0,U,69123,999,248,-.36778157E-3,-.41E-6,0
